{
"type": "FeatureCollection",
"name": "Ikeja boundary",
"crs": { "type": "name", "properties": { "name": "urn:ogc:def:crs:OGC:1.3:CRS84" } },
"features": [
{ "type": "Feature", "properties": { "FID": 766.0, "globalid": "172399ec-75a4-4878-8083-88b701c022f2", "uniq_id": 28896, "timestamp": "2019/08/09 00:00:00.000", "editor": "nuraddeen.isah", "lganame": "Ikeja", "lgacode": "25011", "statename": "Lagos", "statecode": "LA", "source": "eHA_Polio", "amapcode": "NIE LAS KJA" }, "geometry": { "type": "MultiPolygon", "coordinates": [ [ [ [ 3.367734325533522, 6.57173825852707 ], [ 3.367626983533543, 6.571488939526957 ], [ 3.367042382533491, 6.569757656526441 ], [ 3.36675009953337, 6.568042273525889 ], [ 3.366733672533242, 6.566525820525486 ], [ 3.366747778533124, 6.564871484525008 ], [ 3.366750543532974, 6.563504254524587 ], [ 3.366816696532588, 6.559713043523478 ], [ 3.366861748532484, 6.558483753523161 ], [ 3.366291148532592, 6.558424562523103 ], [ 3.364070170533075, 6.558378310522905 ], [ 3.359972864533907, 6.558314252522527 ], [ 3.358259257534255, 6.558267610522403 ], [ 3.357253938534442, 6.558057707522218 ], [ 3.356047362534625, 6.557532014521983 ], [ 3.353988541534977, 6.556652694521592 ], [ 3.352117002535229, 6.555618816521098 ], [ 3.351942908535269, 6.555511390521051 ], [ 3.351813452535345, 6.555701925521096 ], [ 3.351474735535459, 6.556547570521339 ], [ 3.351017431535642, 6.557602988521568 ], [ 3.34963169953628, 6.560986650522463 ], [ 3.348504289536732, 6.563791721523191 ], [ 3.348102804536896, 6.564636875523392 ], [ 3.347653667537119, 6.565793207523683 ], [ 3.346605614537597, 6.568387279524368 ], [ 3.34522607953818, 6.571762013525204 ], [ 3.344317780538574, 6.574031666525774 ], [ 3.344267791538605, 6.574156575525825 ], [ 3.344189641538603, 6.574351855525888 ], [ 3.344105203538652, 6.574562849525929 ], [ 3.344042019538681, 6.574720731525963 ], [ 3.343867865538778, 6.575143832526096 ], [ 3.343662469538853, 6.575642834526192 ], [ 3.343344326538974, 6.576415749526416 ], [ 3.342888553539158, 6.577381623526637 ], [ 3.342598683539257, 6.577995914526764 ], [ 3.339645398540539, 6.585216472528638 ], [ 3.338020593541235, 6.589209792529669 ], [ 3.337599372541409, 6.590287699529913 ], [ 3.335492382541805, 6.589428066529543 ], [ 3.33474561154193, 6.589390272529436 ], [ 3.334182439542041, 6.589321695529394 ], [ 3.334093944542041, 6.589122646529325 ], [ 3.333928522542029, 6.588708696529198 ], [ 3.33383733954202, 6.588359318529077 ], [ 3.333758032542028, 6.587873507528951 ], [ 3.333594757541955, 6.587090969528707 ], [ 3.333575463541968, 6.586870787528619 ], [ 3.333685291541916, 6.586468620528509 ], [ 3.333792826541855, 6.586217239528445 ], [ 3.333871579541775, 6.585874928528356 ], [ 3.333885340541739, 6.584977387528125 ], [ 3.333913082541584, 6.583512597527704 ], [ 3.33396797454153, 6.583280399527588 ], [ 3.333947900541553, 6.583068894527548 ], [ 3.333924588541483, 6.582823286527474 ], [ 3.33298119554168, 6.582870447527408 ], [ 3.331702151541941, 6.582840661527321 ], [ 3.331525830541985, 6.582588033527236 ], [ 3.331005046542092, 6.582611355527208 ], [ 3.330958281542008, 6.581385956526822 ], [ 3.330491079542065, 6.581363288526796 ], [ 3.330452238542005, 6.58053614952653 ], [ 3.328392003542439, 6.580506870526364 ], [ 3.327143605542664, 6.580484712526221 ], [ 3.326400887542875, 6.580768578526258 ], [ 3.324655089543289, 6.581397749526317 ], [ 3.322970616543691, 6.582118780526395 ], [ 3.32135499954411, 6.582732537526438 ], [ 3.320803543544181, 6.582702256526361 ], [ 3.320106418544312, 6.582434640526255 ], [ 3.317540014544748, 6.581341047525721 ], [ 3.315885261544998, 6.580629813525385 ], [ 3.315655506545082, 6.580645276525382 ], [ 3.315341626545145, 6.580852266525397 ], [ 3.3152345815452, 6.581135715525466 ], [ 3.315191246545603, 6.585286893526638 ], [ 3.315177151545746, 6.587224616527223 ], [ 3.31513151254585, 6.587722476527359 ], [ 3.315055019545829, 6.587875703527395 ], [ 3.314825382545934, 6.588082640527467 ], [ 3.313691876546139, 6.588106330527359 ], [ 3.312229066546482, 6.58817617752728 ], [ 3.308792340547169, 6.588147723526974 ], [ 3.308791456547216, 6.588373408527014 ], [ 3.308761777547343, 6.5899205355275 ], [ 3.308735274547379, 6.590410724527641 ], [ 3.308665364547552, 6.59192341052803 ], [ 3.308700352547605, 6.59276778852829 ], [ 3.308752399547642, 6.593330689528481 ], [ 3.309298031547532, 6.593215467528459 ], [ 3.309723826547563, 6.594375533528844 ], [ 3.309873487547544, 6.594875187529011 ], [ 3.309941487547532, 6.594916790529028 ], [ 3.309897519547552, 6.595032181529064 ], [ 3.309851601547611, 6.595089651529078 ], [ 3.309794658547694, 6.595893876529273 ], [ 3.30979527554774, 6.596887625529594 ], [ 3.309870361547822, 6.597548162529783 ], [ 3.309980128547862, 6.598553331530076 ], [ 3.309952131548013, 6.599719423530417 ], [ 3.309912282548057, 6.600299614530566 ], [ 3.309860775548072, 6.600609833530687 ], [ 3.31027437554799, 6.60062106453069 ], [ 3.311136021547845, 6.600614783530793 ], [ 3.312118339547661, 6.600671611530856 ], [ 3.312589371547512, 6.600665571530933 ], [ 3.312831246547582, 6.601641935531231 ], [ 3.314428058547236, 6.601457116531282 ], [ 3.315157538547098, 6.601376236531336 ], [ 3.315565408547021, 6.601410443531375 ], [ 3.315703607547032, 6.601938823531535 ], [ 3.315824657547031, 6.602599330531755 ], [ 3.315928701547112, 6.603615989532018 ], [ 3.315974958547155, 6.604092729532166 ], [ 3.31603845654716, 6.604580946532315 ], [ 3.315837912547281, 6.60538526253256 ], [ 3.316426251547218, 6.605524145532627 ], [ 3.316989348547121, 6.605753555532769 ], [ 3.31790880954695, 6.606315901532986 ], [ 3.319311017546744, 6.607211100533376 ], [ 3.320023611546632, 6.607658690533525 ], [ 3.32051778654658, 6.607899629533672 ], [ 3.321149775546464, 6.608060059533767 ], [ 3.321896646546311, 6.608208926533877 ], [ 3.323321276545995, 6.608230980533998 ], [ 3.325285889545635, 6.608264166534163 ], [ 3.32599821154546, 6.608286677534227 ], [ 3.326572615545355, 6.608228858534248 ], [ 3.327261816545195, 6.608033103534255 ], [ 3.328031287545011, 6.607607526534208 ], [ 3.328777590544762, 6.606894753534029 ], [ 3.329293932544593, 6.605906409533775 ], [ 3.329569146544463, 6.605125016533562 ], [ 3.329855946544315, 6.604492964533441 ], [ 3.330165868544256, 6.604079177533335 ], [ 3.330831863544033, 6.603550269533259 ], [ 3.332003199543749, 6.602779767533108 ], [ 3.332519945543568, 6.602411794533062 ], [ 3.333082453543422, 6.601756579532919 ], [ 3.333107835543414, 6.601838873532928 ], [ 3.33312850854341, 6.601905898532969 ], [ 3.33306645654346, 6.602054002532958 ], [ 3.333097400543486, 6.602364447533072 ], [ 3.333030559543752, 6.60549125053396 ], [ 3.332993141544296, 6.611098568535573 ], [ 3.33299423854444, 6.612737578536072 ], [ 3.332995038544558, 6.613932370536393 ], [ 3.333255516544486, 6.614024102536487 ], [ 3.333944863544336, 6.614038958536556 ], [ 3.335599386544025, 6.614206341536701 ], [ 3.335731119543985, 6.614195814536735 ], [ 3.335702222544025, 6.614476096536821 ], [ 3.335476105544317, 6.616669247537409 ], [ 3.3354762215443, 6.616841573537442 ], [ 3.335584611544265, 6.616930814537492 ], [ 3.336228172544161, 6.617190783537629 ], [ 3.336764487544105, 6.617427847537718 ], [ 3.336822008544077, 6.617538862537772 ], [ 3.336638684544205, 6.618278072537977 ], [ 3.335958677544544, 6.620760023538636 ], [ 3.335966601544623, 6.621150623538756 ], [ 3.335917239544663, 6.621778688538933 ], [ 3.335817858544725, 6.622062135539021 ], [ 3.335489196544871, 6.623088653539297 ], [ 3.334755384545203, 6.625306406539852 ], [ 3.334602515545302, 6.625781362539982 ], [ 3.334939597545229, 6.625876871540042 ], [ 3.335322636545142, 6.625972350540138 ], [ 3.336138524545029, 6.626197736540224 ], [ 3.336414325544967, 6.626285627540289 ], [ 3.336598244544935, 6.626419533540316 ], [ 3.336678746544933, 6.626534363540388 ], [ 3.336787484544922, 6.626729501540437 ], [ 3.337052009544939, 6.62713141554058 ], [ 3.337293549544915, 6.627521856540693 ], [ 3.337523946544946, 6.628421622541005 ], [ 3.337773519544999, 6.629359670541264 ], [ 3.338233548544917, 6.630029512541532 ], [ 3.33878921854489, 6.630546110541719 ], [ 3.339440673544776, 6.631120084541961 ], [ 3.340513590544619, 6.631961829542293 ], [ 3.341529117544544, 6.632880201542643 ], [ 3.341841633544469, 6.633312386542758 ], [ 3.341835896544504, 6.633454408542833 ], [ 3.342449391544456, 6.63450708654314 ], [ 3.342698633544496, 6.634947301543312 ], [ 3.343024537544441, 6.635483200543496 ], [ 3.343197170544478, 6.635904320543632 ], [ 3.34321161154448, 6.636364404543761 ], [ 3.343273323544512, 6.636992392543967 ], [ 3.343319865544589, 6.63783484054423 ], [ 3.343351119544682, 6.638723252544487 ], [ 3.343367001544767, 6.639535085544728 ], [ 3.343291030544864, 6.640438890544933 ], [ 3.343285909544861, 6.640567835544997 ], [ 3.343230803545007, 6.641955396545397 ], [ 3.343247142545152, 6.643425895545824 ], [ 3.343293589545193, 6.644130483546049 ], [ 3.343248108545237, 6.644819816546214 ], [ 3.343053536545338, 6.645478097546421 ], [ 3.343003569545369, 6.645647148546466 ], [ 3.343065229545434, 6.646198547546646 ], [ 3.342881713545521, 6.646658208546746 ], [ 3.342698037545574, 6.646888103546816 ], [ 3.341994033545811, 6.647899566547052 ], [ 3.341718819545939, 6.648680965547261 ], [ 3.341152530546122, 6.649462564547436 ], [ 3.341244628546109, 6.649722903547485 ], [ 3.341551360546103, 6.650212862547648 ], [ 3.341735758546126, 6.651024579547929 ], [ 3.341704803546134, 6.651030553547905 ], [ 3.341957148546098, 6.651468866548069 ], [ 3.342233202546122, 6.651899489548215 ], [ 3.342468986546087, 6.652249721548356 ], [ 3.34278512754603, 6.652496502548438 ], [ 3.343164435545962, 6.652703029548519 ], [ 3.343813727545892, 6.652869159548644 ], [ 3.344342368545757, 6.653023885548739 ], [ 3.34485949154567, 6.653138408548792 ], [ 3.345238748545623, 6.653270259548855 ], [ 3.345767450545534, 6.653511146548983 ], [ 3.346376581545406, 6.653751975549109 ], [ 3.346922543545308, 6.654027313549228 ], [ 3.347142920545296, 6.654338109549341 ], [ 3.347334660545279, 6.654682625549438 ], [ 3.347840980545272, 6.65576983454979 ], [ 3.348032656545298, 6.656022443549909 ], [ 3.348354530545262, 6.65624432454996 ], [ 3.348722413545179, 6.656535103550083 ], [ 3.349013669545166, 6.656787641550167 ], [ 3.349580744545073, 6.657124232550313 ], [ 3.350086545544975, 6.657468525550466 ], [ 3.350400642544915, 6.657521914550523 ], [ 3.350668838544907, 6.657659584550543 ], [ 3.350860397544849, 6.657743696550609 ], [ 3.351113203544791, 6.657781811550634 ], [ 3.351511679544774, 6.658003636550717 ], [ 3.352308305544561, 6.657987751550793 ], [ 3.352660499544485, 6.657757733550787 ], [ 3.353189338544438, 6.658178595550947 ], [ 3.353112777544445, 6.658232262550931 ], [ 3.353197075544423, 6.658285814550951 ], [ 3.353350241544406, 6.658239751550936 ], [ 3.354048384544143, 6.657300230550754 ], [ 3.35207961054445, 6.655970484550197 ], [ 3.351940696544328, 6.654193448549651 ], [ 3.352456124544127, 6.653463434549481 ], [ 3.352703366543971, 6.652300888549173 ], [ 3.35437435654366, 6.652268650549281 ], [ 3.355402059543398, 6.651956239549289 ], [ 3.358087129542775, 6.651354559549341 ], [ 3.360381775542228, 6.650565401549264 ], [ 3.363685631541449, 6.649428230549217 ], [ 3.36411348554132, 6.648897880549081 ], [ 3.36459144054118, 6.648357874548965 ], [ 3.367760994540209, 6.644724575548161 ], [ 3.370554559539354, 6.64172595354751 ], [ 3.372670083538837, 6.641102082547539 ], [ 3.371969015538967, 6.640446018547294 ], [ 3.370359517539187, 6.639154786546761 ], [ 3.369018099539307, 6.637844202546265 ], [ 3.367542270539429, 6.63602631254563 ], [ 3.366468650539494, 6.634303855545015 ], [ 3.365902964539553, 6.633232028544687 ], [ 3.365116554539566, 6.63146148754412 ], [ 3.364607871539496, 6.629776904543608 ], [ 3.364511056539472, 6.629374844543484 ], [ 3.364319760539413, 6.628580413543204 ], [ 3.364002423539352, 6.626694642542637 ], [ 3.364006360539279, 6.6261883545425 ], [ 3.363936048539133, 6.624310061541943 ], [ 3.364055367538964, 6.622512047541402 ], [ 3.364141084538881, 6.62189735754127 ], [ 3.364306939538732, 6.620892005540997 ], [ 3.364753816538494, 6.619260331540548 ], [ 3.365109153538349, 6.618139956540227 ], [ 3.365734668538049, 6.616624151539841 ], [ 3.365585227538106, 6.616509378539787 ], [ 3.365011031538253, 6.61685445053986 ], [ 3.363107163538542, 6.615711678539393 ], [ 3.363275819538424, 6.615104704539235 ], [ 3.358654194539107, 6.611874312537893 ], [ 3.359125904538959, 6.611313632537788 ], [ 3.358641591538994, 6.610784240537563 ], [ 3.365669094537091, 6.605560916536637 ], [ 3.366563913536853, 6.605027888536548 ], [ 3.369491965536438, 6.607523426537513 ], [ 3.371336320535828, 6.604959683536927 ], [ 3.375276393534545, 6.599512392535675 ], [ 3.376588724534374, 6.60051087453607 ], [ 3.376985055534282, 6.600488340536114 ], [ 3.377472859534113, 6.599879089535964 ], [ 3.377823043534026, 6.599591615535904 ], [ 3.378344289533919, 6.599528034535925 ], [ 3.379359072533548, 6.59817732453562 ], [ 3.38300980853242, 6.593480399534537 ], [ 3.382883716532414, 6.593305734534506 ], [ 3.379091962532692, 6.588053233532705 ], [ 3.375120557532989, 6.58258011853077 ], [ 3.374164768533077, 6.581264109530323 ], [ 3.373219223533173, 6.579962196529852 ], [ 3.373142555533158, 6.579855028529815 ], [ 3.373174666533146, 6.579831244529806 ], [ 3.372792848533187, 6.579364219529657 ], [ 3.371796201533301, 6.578005505529194 ], [ 3.369208720533467, 6.574398161527953 ], [ 3.368547413533536, 6.573383843527561 ], [ 3.368154414533513, 6.572713977527382 ], [ 3.367734325533522, 6.57173825852707 ] ] ] ] } }
]
}
