{
"type": "FeatureCollection",
"name": "Ikeja PHC",
"crs": { "type": "name", "properties": { "name": "urn:ogc:def:crs:OGC:1.3:CRS84" } },
"features": [
{ "type": "Feature", "properties": { "id": 1235, "name": "Onigbongbo Health Care Center", "global_id": "3220906b-1702-4e42-8161-d5199b0507b2", "alternate_": null, "functional": "Functional", "type": "Primary", "ward_code": "LASIKA12", "category": "Primary Health Center", "timestamp": "2018/12/18 10:31:34.000", "accessibil": null, "lga_name": "Ikeja", "lga_code": "25011", "state_code": "LA", "state_name": "Lagos" }, "geometry": { "type": "Point", "coordinates": [ 3.364796302534005, 6.570808598526489 ] } },
{ "type": "Feature", "properties": { "id": 1362, "name": "Opebi Primary Health Center", "global_id": "3854bf39-0017-4008-8095-dd6ac833cbe9", "alternate_": null, "functional": "Functional", "type": "Primary", "ward_code": "LASIKA14", "category": "Primary Health Center", "timestamp": "2018/12/18 10:20:27.000", "accessibil": null, "lga_name": "Ikeja", "lga_code": "25011", "state_code": "LA", "state_name": "Lagos" }, "geometry": { "type": "Point", "coordinates": [ 3.362393335536213, 6.589446665531672 ] } },
{ "type": "Feature", "properties": { "id": 1368, "name": "Oregun Primary Health Care Center", "global_id": "3167880d-17be-4b24-ba45-d5a61abe160a", "alternate_": null, "functional": "Functional", "type": "Primary", "ward_code": "LASIKA15", "category": "Primary Health Center", "timestamp": "2018/12/18 10:22:34.000", "accessibil": null, "lga_name": "Ikeja", "lga_code": "25011", "state_code": "LA", "state_name": "Lagos" }, "geometry": { "type": "Point", "coordinates": [ 3.364128335536912, 6.600966665535147 ] } },
{ "type": "Feature", "properties": { "id": 1371, "name": "Ikeja Primary Health Center", "global_id": "4c0b8011-af9c-4d55-bbc4-4f9aa2fbe04a", "alternate_": null, "functional": "Functional", "type": "Primary", "ward_code": "LASIKA05", "category": "Primary Health Center", "timestamp": "2018/12/18 10:22:34.000", "accessibil": null, "lga_name": "Ikeja", "lga_code": "25011", "state_code": "LA", "state_name": "Lagos" }, "geometry": { "type": "Point", "coordinates": [ 3.338431669541847, 6.597149998531949 ] } },
{ "type": "Feature", "properties": { "id": 1372, "name": "Akiode Primary Health Care Center", "global_id": "7f068082-d633-4650-b4f3-e3e7f414490e", "alternate_": null, "functional": "Functional", "type": "Primary", "ward_code": "LASIKA08", "category": "Primary Health Center", "timestamp": "2018/12/18 10:22:34.000", "accessibil": null, "lga_name": "Ikeja", "lga_code": "25011", "state_code": "LA", "state_name": "Lagos" }, "geometry": { "type": "Point", "coordinates": [ 3.355751669542173, 6.639776665545724 ] } },
{ "type": "Feature", "properties": { "id": 1457, "name": "Ogba Primary Health Center", "global_id": "4eef270b-e351-4cf2-bf60-ff31051dd22b", "alternate_": null, "functional": "Functional", "type": "Primary", "ward_code": "LASIKA07", "category": "Primary Health Center", "timestamp": "2018/12/18 10:27:29.000", "accessibil": null, "lga_name": "Ikeja", "lga_code": "25011", "state_code": "LA", "state_name": "Lagos" }, "geometry": { "type": "Point", "coordinates": [ 3.342301802544103, 6.630570598541961 ] } },
{ "type": "Feature", "properties": { "id": 2089, "name": "Olusosun Primary Health Center", "global_id": "5378720c-ed5e-47a8-9ee8-0b2e3d408919", "alternate_": null, "functional": "Functional", "type": "Primary", "ward_code": "LASIKA11", "category": "Primary Health Center", "timestamp": "2018/12/18 10:20:27.000", "accessibil": null, "lga_name": "Ikeja", "lga_code": "25011", "state_code": "LA", "state_name": "Lagos" }, "geometry": { "type": "Point", "coordinates": [ 3.37487000253371, 6.590124098532885 ] } },
{ "type": "Feature", "properties": { "id": 2096, "name": "Abule Onigbagbo Primary Health Center", "global_id": "80a0e8d4-186f-4a65-9de1-76fce563155b", "alternate_": null, "functional": "Functional", "type": "Primary", "ward_code": "LASIKA14", "category": "Primary Health Center", "timestamp": "2018/12/18 10:30:51.000", "accessibil": null, "lga_name": "Ikeja", "lga_code": "25011", "state_code": "LA", "state_name": "Lagos" }, "geometry": { "type": "Point", "coordinates": [ 3.357935002536803, 6.585903298530283 ] } },
{ "type": "Feature", "properties": { "id": 2098, "name": "Beko Ransome Kuti Health Center", "global_id": "19f8f03f-058a-436d-8793-1ad1198dd580", "alternate_": null, "functional": "Functional", "type": "Primary", "ward_code": "LASIKA06", "category": "Primary Health Center", "timestamp": "2018/12/18 10:30:58.000", "accessibil": null, "lga_name": "Ikeja", "lga_code": "25011", "state_code": "LA", "state_name": "Lagos" }, "geometry": { "type": "Point", "coordinates": [ 3.346208302539375, 6.587656698529831 ] } },
{ "type": "Feature", "properties": { "id": 2175, "name": "Unilever Nigeria Staff Clinic", "global_id": "e7b684b3-8312-41a2-98c9-ef1ef858c96c", "alternate_": null, "functional": "Functional", "type": "Primary", "ward_code": "LASIKA15", "category": "Primary Health Center", "timestamp": "2018/12/18 10:22:34.000", "accessibil": null, "lga_name": "Ikeja", "lga_code": "25011", "state_code": "LA", "state_name": "Lagos" }, "geometry": { "type": "Point", "coordinates": [ 3.372143335535517, 6.603738331536599 ] } },
{ "type": "Feature", "properties": { "id": 3530, "name": "Peak Eye Center", "global_id": "bbfec50b-14ba-4184-a2a3-0d6a7a59d2a7", "alternate_": null, "functional": "Functional", "type": "Primary", "ward_code": "LASIKA15", "category": "Primary Health Center", "timestamp": "2019/11/15 17:20:30.000", "accessibil": null, "lga_name": "Ikeja", "lga_code": "25011", "state_code": "LA", "state_name": "Lagos" }, "geometry": { "type": "Point", "coordinates": [ 3.365853335536519, 6.600566665535169 ] } },
{ "type": "Feature", "properties": { "id": 7132, "name": "Paleon Memorial Hospital", "global_id": "40a7d273-d086-460d-881c-cd1cc4ba3d90", "alternate_": null, "functional": "Functional", "type": "Primary", "ward_code": "LASIKA17", "category": "Primary Health Center", "timestamp": "2018/12/18 10:20:03.000", "accessibil": null, "lga_name": "Ikeja", "lga_code": "25011", "state_code": "LA", "state_name": "Lagos" }, "geometry": { "type": "Point", "coordinates": [ 3.339888335542209, 6.604378331534158 ] } },
{ "type": "Feature", "properties": { "id": 7214, "name": "Cypress Hill", "global_id": "0c8b1df8-cb72-49c7-9011-00b21c9d41ed", "alternate_": null, "functional": "Functional", "type": "Primary", "ward_code": "LASIKA15", "category": "Primary Health Center", "timestamp": "2018/12/18 10:20:27.000", "accessibil": null, "lga_name": "Ikeja", "lga_code": "25011", "state_code": "LA", "state_name": "Lagos" }, "geometry": { "type": "Point", "coordinates": [ 3.364643335536925, 6.602273331535563 ] } },
{ "type": "Feature", "properties": { "id": 7278, "name": "De Vine Hospital", "global_id": "46d9338f-7d9b-47ea-9f04-2832a4b472c8", "alternate_": null, "functional": "Functional", "type": "Primary", "ward_code": "LASIKA15", "category": "Primary Health Center", "timestamp": "2018/12/18 10:22:34.000", "accessibil": null, "lga_name": "Ikeja", "lga_code": "25011", "state_code": "LA", "state_name": "Lagos" }, "geometry": { "type": "Point", "coordinates": [ 3.363088335537136, 6.601091665535093 ] } },
{ "type": "Feature", "properties": { "id": 7280, "name": "Impact Hewalth Service Limited", "global_id": "c6b8c6b6-52b0-4189-b36b-7b3ac459531a", "alternate_": null, "functional": "Functional", "type": "Primary", "ward_code": "LASIKA14", "category": "Primary Health Center", "timestamp": "2018/12/18 10:22:34.000", "accessibil": null, "lga_name": "Ikeja", "lga_code": "25011", "state_code": "LA", "state_name": "Lagos" }, "geometry": { "type": "Point", "coordinates": [ 3.364983335535406, 6.58646499853102 ] } },
{ "type": "Feature", "properties": { "id": 7340, "name": "Rosescan Hospital", "global_id": "2493c434-5dbb-4f49-938e-b8b68fe9de45", "alternate_": null, "functional": "Functional", "type": "Primary", "ward_code": "LASIKA05", "category": "Primary Health Center", "timestamp": "2018/12/18 10:27:22.000", "accessibil": null, "lga_name": "Ikeja", "lga_code": "25011", "state_code": "LA", "state_name": "Lagos" }, "geometry": { "type": "Point", "coordinates": [ 3.33979170254126, 6.593788298531084 ] } },
{ "type": "Feature", "properties": { "id": 7342, "name": "Blue Cross Hoapital", "global_id": "e6f46b01-e40c-4b43-bc12-37319a4e4c86", "alternate_": null, "functional": "Functional", "type": "Primary", "ward_code": "LASIKA07", "category": "Primary Health Center", "timestamp": "2018/12/18 10:27:22.000", "accessibil": null, "lga_name": "Ikeja", "lga_code": "25011", "state_code": "LA", "state_name": "Lagos" }, "geometry": { "type": "Point", "coordinates": [ 3.340475002544597, 6.631868331542193 ] } },
{ "type": "Feature", "properties": { "id": 7366, "name": "The Humana Hospital", "global_id": "4a56bed3-3e8e-4e2f-a2a7-aa0a7fcdce6b", "alternate_": null, "functional": "Functional", "type": "Primary", "ward_code": "LASIKA04", "category": "Primary Health Center", "timestamp": "2018/12/18 10:27:30.000", "accessibil": null, "lga_name": "Ikeja", "lga_code": "25011", "state_code": "LA", "state_name": "Lagos" }, "geometry": { "type": "Point", "coordinates": [ 3.354375002540708, 6.620573331540034 ] } },
{ "type": "Feature", "properties": { "id": 7404, "name": "Olukayode Health Care Center", "global_id": "13b59c01-86fc-4927-a278-945d97396450", "alternate_": null, "functional": "Functional", "type": "Primary", "ward_code": "LASIKA13", "category": "Primary Health Center", "timestamp": "2018/12/18 10:30:50.000", "accessibil": null, "lga_name": "Ikeja", "lga_code": "25011", "state_code": "LA", "state_name": "Lagos" }, "geometry": { "type": "Point", "coordinates": [ 3.326821669545224, 6.607934998534132 ] } },
{ "type": "Feature", "properties": { "id": 7463, "name": "Schubbs Dental Clinic", "global_id": "eecc7d27-d050-4550-baa6-29fe0647b448", "alternate_": null, "functional": "Functional", "type": "Primary", "ward_code": "LASIKA06", "category": "Primary Health Center", "timestamp": "2018/12/18 10:30:57.000", "accessibil": null, "lga_name": "Ikeja", "lga_code": "25011", "state_code": "LA", "state_name": "Lagos" }, "geometry": { "type": "Point", "coordinates": [ 3.359899202535637, 6.577601698528047 ] } },
{ "type": "Feature", "properties": { "id": 7475, "name": "Tlc Clinic", "global_id": "7b6c74fe-3111-4c74-bf4b-89d69153185d", "alternate_": null, "functional": "Functional", "type": "Primary", "ward_code": "LASIKA16", "category": "Primary Health Center", "timestamp": "2018/12/18 10:30:58.000", "accessibil": null, "lga_name": "Ikeja", "lga_code": "25011", "state_code": "LA", "state_name": "Lagos" }, "geometry": { "type": "Point", "coordinates": [ 3.346040502540164, 6.595872198532195 ] } },
{ "type": "Feature", "properties": { "id": 7476, "name": "Snow White Dental Clinic", "global_id": "8020e069-adfb-4176-ab78-111371a7929a", "alternate_": null, "functional": "Functional", "type": "Primary", "ward_code": "LASIKA16", "category": "Primary Health Center", "timestamp": "2018/12/18 10:30:58.000", "accessibil": null, "lga_name": "Ikeja", "lga_code": "25011", "state_code": "LA", "state_name": "Lagos" }, "geometry": { "type": "Point", "coordinates": [ 3.346327702540132, 6.596175998532306 ] } },
{ "type": "Feature", "properties": { "id": 7477, "name": "Impro Vision Eye Clinic", "global_id": "caf39756-7274-4366-84cc-6cbb68da38f3", "alternate_": null, "functional": "Functional", "type": "Primary", "ward_code": "LASIKA16", "category": "Primary Health Center", "timestamp": "2018/12/18 10:30:58.000", "accessibil": null, "lga_name": "Ikeja", "lga_code": "25011", "state_code": "LA", "state_name": "Lagos" }, "geometry": { "type": "Point", "coordinates": [ 3.346748502539941, 6.59502879853201 ] } },
{ "type": "Feature", "properties": { "id": 7485, "name": "Vitalhope Dental Clinic", "global_id": "1e00f7a8-af0c-411f-bc54-1d88478cd10e", "alternate_": null, "functional": "Functional", "type": "Primary", "ward_code": "LASIKA07", "category": "Primary Health Center", "timestamp": "2018/12/18 10:30:59.000", "accessibil": null, "lga_name": "Ikeja", "lga_code": "25011", "state_code": "LA", "state_name": "Lagos" }, "geometry": { "type": "Point", "coordinates": [ 3.345700802542339, 6.618882198538842 ] } },
{ "type": "Feature", "properties": { "id": 7486, "name": "Michel Dental Clinic", "global_id": "263169fe-14a6-4d43-a50c-75b77375bd82", "alternate_": null, "functional": "Functional", "type": "Primary", "ward_code": "LASIKA17", "category": "Primary Health Center", "timestamp": "2018/12/18 10:30:59.000", "accessibil": null, "lga_name": "Ikeja", "lga_code": "25011", "state_code": "LA", "state_name": "Lagos" }, "geometry": { "type": "Point", "coordinates": [ 3.342878335541994, 6.608756665535673 ] } },
{ "type": "Feature", "properties": { "id": 7505, "name": "St Ives Family Clinic", "global_id": "4115ec2f-c204-4523-bd18-432f715ab4e1", "alternate_": null, "functional": "Functional", "type": "Primary", "ward_code": "LASIKA16", "category": "Primary Health Center", "timestamp": "2018/12/18 10:31:02.000", "accessibil": null, "lga_name": "Ikeja", "lga_code": "25011", "state_code": "LA", "state_name": "Lagos" }, "geometry": { "type": "Point", "coordinates": [ 3.34718000254022, 6.599050798533211 ] } },
{ "type": "Feature", "properties": { "id": 7569, "name": "Motayo Hospital Limited", "global_id": "d57c4134-968f-4dc8-a699-a8d2ea44821c", "alternate_": null, "functional": "Functional", "type": "Primary", "ward_code": "LASIKA16", "category": "Primary Health Center", "timestamp": "2018/12/18 10:31:14.000", "accessibil": null, "lga_name": "Ikeja", "lga_code": "25011", "state_code": "LA", "state_name": "Lagos" }, "geometry": { "type": "Point", "coordinates": [ 3.350338335539621, 6.599596665533626 ] } },
{ "type": "Feature", "properties": { "id": 7577, "name": "Healthville Holistic Clinic", "global_id": "b16ebbc1-4464-4e7a-a069-bd9fe633e5be", "alternate_": null, "functional": "Functional", "type": "Primary", "ward_code": "LASIKA07", "category": "Primary Health Center", "timestamp": "2018/12/18 10:31:15.000", "accessibil": null, "lga_name": "Ikeja", "lga_code": "25011", "state_code": "LA", "state_name": "Lagos" }, "geometry": { "type": "Point", "coordinates": [ 3.346001602541928, 6.615064498537757 ] } },
{ "type": "Feature", "properties": { "id": 8316, "name": "Duro Soleye Hospital", "global_id": "94a6000c-373c-4a2e-8654-f4009fb8bd07", "alternate_": null, "functional": "Functional", "type": "Primary", "ward_code": "LASIKA14", "category": "Primary Health Center", "timestamp": "2019/06/21 13:33:43.000", "accessibil": null, "lga_name": "Ikeja", "lga_code": "25011", "state_code": "LA", "state_name": "Lagos" }, "geometry": { "type": "Point", "coordinates": [ 3.3528716695391, 6.599586665533827 ] } },
{ "type": "Feature", "properties": { "id": 9073, "name": "Adenaike Hospital", "global_id": "cb4b34cd-ccb1-4183-a160-83f7113b98a5", "alternate_": null, "functional": "Functional", "type": "Primary", "ward_code": "LASIKA08", "category": "Primary Health Center", "timestamp": "2019/11/15 17:20:30.000", "accessibil": null, "lga_name": "Ikeja", "lga_code": "25011", "state_code": "LA", "state_name": "Lagos" }, "geometry": { "type": "Point", "coordinates": [ 3.354096669542994, 6.64506166554713 ] } },
{ "type": "Feature", "properties": { "id": 9074, "name": "Royan Hospital", "global_id": "89115f4e-143f-48ed-9b59-6f4da622c940", "alternate_": null, "functional": "Functional", "type": "Primary", "ward_code": "LASIKA08", "category": "Primary Health Center", "timestamp": "2019/11/15 17:20:30.000", "accessibil": null, "lga_name": "Ikeja", "lga_code": "25011", "state_code": "LA", "state_name": "Lagos" }, "geometry": { "type": "Point", "coordinates": [ 3.363435002540998, 6.644263331547645 ] } },
{ "type": "Feature", "properties": { "id": 9094, "name": "Eyespecs Optical", "global_id": "5697f125-b5f0-4926-942d-12bd791290d9", "alternate_": null, "functional": "Functional", "type": "Primary", "ward_code": "LASIKA16", "category": "Primary Health Center", "timestamp": "2019/11/15 17:20:30.000", "accessibil": null, "lga_name": "Ikeja", "lga_code": "25011", "state_code": "LA", "state_name": "Lagos" }, "geometry": { "type": "Point", "coordinates": [ 3.351458335539059, 6.595978331532667 ] } },
{ "type": "Feature", "properties": { "id": 9123, "name": "Randc Renal Dialysis Center", "global_id": "f224882e-4378-4572-8ffd-9708c0f8944e", "alternate_": null, "functional": "Functional", "type": "Primary", "ward_code": "LASIKA04", "category": "Primary Health Center", "timestamp": "2019/11/15 17:20:30.000", "accessibil": null, "lga_name": "Ikeja", "lga_code": "25011", "state_code": "LA", "state_name": "Lagos" }, "geometry": { "type": "Point", "coordinates": [ 3.352835002539453, 6.603366665534922 ] } },
{ "type": "Feature", "properties": { "id": 9124, "name": "Bossel Eye Care", "global_id": "e0b66b49-6307-40dd-8122-324a3903fca0", "alternate_": null, "functional": "Functional", "type": "Primary", "ward_code": "LASIKA07", "category": "Primary Health Center", "timestamp": "2019/11/15 17:20:30.000", "accessibil": null, "lga_name": "Ikeja", "lga_code": "25011", "state_code": "LA", "state_name": "Lagos" }, "geometry": { "type": "Point", "coordinates": [ 3.345659302542336, 6.618760698538803 ] } },
{ "type": "Feature", "properties": { "id": 9145, "name": "Meb Eye Clinic", "global_id": "6c320671-de64-4786-b16d-00b2f87c1c88", "alternate_": null, "functional": "Functional", "type": "Primary", "ward_code": "LASIKA17", "category": "Primary Health Center", "timestamp": "2019/11/15 17:20:30.000", "accessibil": null, "lga_name": "Ikeja", "lga_code": "25011", "state_code": "LA", "state_name": "Lagos" }, "geometry": { "type": "Point", "coordinates": [ 3.342617102541135, 6.59877709853276 ] } },
{ "type": "Feature", "properties": { "id": 9489, "name": "New Ikeja Hospital", "global_id": "c53bd174-85db-49c1-ad9e-7372c90261ec", "alternate_": null, "functional": "Functional", "type": "Primary", "ward_code": "LASIKA03", "category": "Primary Health Center", "timestamp": "2019/11/15 17:20:30.000", "accessibil": null, "lga_name": "Ikeja", "lga_code": "25011", "state_code": "LA", "state_name": "Lagos" }, "geometry": { "type": "Point", "coordinates": [ 3.34721090254063, 6.603595998534528 ] } },
{ "type": "Feature", "properties": { "id": 9895, "name": "Ojodu Local Council Development Area Secretariat Health Center", "global_id": "e97af0e7-8c69-4e4a-bd39-5128a7a677c5", "alternate_": null, "functional": "Functional", "type": "Primary", "ward_code": "LASIKA10", "category": "Primary Health Center", "timestamp": "2019/11/15 17:15:50.000", "accessibil": null, "lga_name": "Ikeja", "lga_code": "25011", "state_code": "LA", "state_name": "Lagos" }, "geometry": { "type": "Point", "coordinates": [ 3.350266669544567, 6.653741665549347 ] } },
{ "type": "Feature", "properties": { "id": 9983, "name": "Wasinmi Health Clinic", "global_id": "7094afbb-73ed-47a1-93b8-dfe21bea6f72", "alternate_": null, "functional": "Functional", "type": "Primary", "ward_code": "LASIKA18", "category": "Primary Health Center", "timestamp": "2019/11/15 17:31:48.000", "accessibil": null, "lga_name": "Ikeja", "lga_code": "25011", "state_code": "LA", "state_name": "Lagos" }, "geometry": { "type": "Point", "coordinates": [ 3.368541669533958, 6.578664998529061 ] } },
{ "type": "Feature", "properties": { "id": 10711, "name": "Ojodu Primary Health Care Center", "global_id": "249d6d0d-0b78-4022-a1ff-d5a7366ccfb9", "alternate_": null, "functional": "Functional", "type": "Primary", "ward_code": "LASIKA08", "category": "Primary Health Center", "timestamp": "2019/11/15 17:15:50.000", "accessibil": null, "lga_name": "Ikeja", "lga_code": "25011", "state_code": "LA", "state_name": "Lagos" }, "geometry": { "type": "Point", "coordinates": [ 3.358746669542255, 6.647459998548199 ] } },
{ "type": "Feature", "properties": { "id": 10864, "name": "Gods Love Hospital", "global_id": "3e3ff165-b47f-4800-83a7-b8eed68975b5", "alternate_": null, "functional": "Functional", "type": "Primary", "ward_code": "LASIKA16", "category": "Primary Health Center", "timestamp": "2019/11/15 17:20:30.000", "accessibil": null, "lga_name": "Ikeja", "lga_code": "25011", "state_code": "LA", "state_name": "Lagos" }, "geometry": { "type": "Point", "coordinates": [ 3.342196302540758, 6.593728498531262 ] } },
{ "type": "Feature", "properties": { "id": 11350, "name": "St Solomon Health Care", "global_id": "a42ddaba-db2c-475d-9d00-ae012ff7e100", "alternate_": null, "functional": "Functional", "type": "Primary", "ward_code": "LASIKA17", "category": "Primary Health Center", "timestamp": "2019/11/15 17:20:30.000", "accessibil": null, "lga_name": "Ikeja", "lga_code": "25011", "state_code": "LA", "state_name": "Lagos" }, "geometry": { "type": "Point", "coordinates": [ 3.341455002542178, 6.607574998535217 ] } },
{ "type": "Feature", "properties": { "id": 11586, "name": "New Height Pharma", "global_id": "6bff1740-7548-4972-9247-10adea9ab1aa", "alternate_": null, "functional": "Functional", "type": "Primary", "ward_code": "LASIKA12", "category": "Primary Health Center", "timestamp": "2019/11/15 17:20:30.000", "accessibil": null, "lga_name": "Ikeja", "lga_code": "25011", "state_code": "LA", "state_name": "Lagos" }, "geometry": { "type": "Point", "coordinates": [ 3.366157402533594, 6.569384398526189 ] } },
{ "type": "Feature", "properties": { "id": 11721, "name": "St Ives Specilaist Hospital", "global_id": "e2287bb7-6613-46c0-bdb9-ecec346585aa", "alternate_": null, "functional": "Functional", "type": "Primary", "ward_code": "LASIKA14", "category": "Primary Health Center", "timestamp": "2019/11/15 17:20:30.000", "accessibil": null, "lga_name": "Ikeja", "lga_code": "25011", "state_code": "LA", "state_name": "Lagos" }, "geometry": { "type": "Point", "coordinates": [ 3.362608335536258, 6.590441665531976 ] } },
{ "type": "Feature", "properties": { "id": 11731, "name": "Isalu Hospitals", "global_id": "b69b2398-9ec4-45b0-ad2f-22c74284f0c2", "alternate_": null, "functional": "Functional", "type": "Primary", "ward_code": "LASIKA07", "category": "Primary Health Center", "timestamp": "2019/11/15 17:20:30.000", "accessibil": null, "lga_name": "Ikeja", "lga_code": "25011", "state_code": "LA", "state_name": "Lagos" }, "geometry": { "type": "Point", "coordinates": [ 3.346824402543223, 6.631119598542485 ] } },
{ "type": "Feature", "properties": { "id": 11770, "name": "Desecret Hospital", "global_id": "bda7b8c2-fe5d-4325-932b-47b2a4a8b6d6", "alternate_": null, "functional": "Functional", "type": "Primary", "ward_code": "LASIKA06", "category": "Primary Health Center", "timestamp": "2019/11/15 17:31:48.000", "accessibil": null, "lga_name": "Ikeja", "lga_code": "25011", "state_code": "LA", "state_name": "Lagos" }, "geometry": { "type": "Point", "coordinates": [ 3.355240002536297, 6.574376665526733 ] } },
{ "type": "Feature", "properties": { "id": 11901, "name": "Crown Healthcare", "global_id": "0c4270f3-5cfc-43ec-969a-e13c10d1be82", "alternate_": null, "functional": "Functional", "type": "Primary", "ward_code": "LASIKA04", "category": "Primary Health Center", "timestamp": "2019/11/15 17:20:30.000", "accessibil": null, "lga_name": "Ikeja", "lga_code": "25011", "state_code": "LA", "state_name": "Lagos" }, "geometry": { "type": "Point", "coordinates": [ 3.358483902538679, 6.607595698536607 ] } },
{ "type": "Feature", "properties": { "id": 11916, "name": "Kedi Healthcare", "global_id": "7565d635-5ea2-48d4-a4f9-dadf072395c8", "alternate_": null, "functional": "Functional", "type": "Primary", "ward_code": "LASIKA04", "category": "Primary Health Center", "timestamp": "2019/11/15 17:20:30.000", "accessibil": null, "lga_name": "Ikeja", "lga_code": "25011", "state_code": "LA", "state_name": "Lagos" }, "geometry": { "type": "Point", "coordinates": [ 3.355073702539524, 6.609172598536784 ] } },
{ "type": "Feature", "properties": { "id": 11961, "name": "Lagoon Hospital", "global_id": "d1ba48d2-b83a-4539-aed2-506c7500a762", "alternate_": null, "functional": "Functional", "type": "Primary", "ward_code": "LASIKA17", "category": "Primary Health Center", "timestamp": "2019/11/15 17:20:30.000", "accessibil": null, "lga_name": "Ikeja", "lga_code": "25011", "state_code": "LA", "state_name": "Lagos" }, "geometry": { "type": "Point", "coordinates": [ 3.345923335540971, 6.604421665534666 ] } },
{ "type": "Feature", "properties": { "id": 12041, "name": "Just Vision Eye Clinic", "global_id": "5bdf479f-adf6-4721-9c30-69853b2ece0d", "alternate_": null, "functional": "Functional", "type": "Primary", "ward_code": "LASIKA15", "category": "Primary Health Center", "timestamp": "2019/11/15 17:20:30.000", "accessibil": null, "lga_name": "Ikeja", "lga_code": "25011", "state_code": "LA", "state_name": "Lagos" }, "geometry": { "type": "Point", "coordinates": [ 3.366628335536069, 6.597386665534312 ] } },
{ "type": "Feature", "properties": { "id": 12054, "name": "Vine Dental Clinic", "global_id": "e14a4d5a-f0a0-4dbc-9d3d-109a48ae9d6b", "alternate_": null, "functional": "Functional", "type": "Primary", "ward_code": "LASIKA06", "category": "Primary Health Center", "timestamp": "2019/11/15 17:20:30.000", "accessibil": null, "lga_name": "Ikeja", "lga_code": "25011", "state_code": "LA", "state_name": "Lagos" }, "geometry": { "type": "Point", "coordinates": [ 3.351726669536785, 6.571831665525711 ] } },
{ "type": "Feature", "properties": { "id": 12055, "name": "Medicheck Health Screening Suite", "global_id": "9945cce0-0151-49e6-9d54-1b36fced0057", "alternate_": null, "functional": "Functional", "type": "Primary", "ward_code": "LASIKA06", "category": "Primary Health Center", "timestamp": "2019/11/15 17:20:30.000", "accessibil": null, "lga_name": "Ikeja", "lga_code": "25011", "state_code": "LA", "state_name": "Lagos" }, "geometry": { "type": "Point", "coordinates": [ 3.351451669536874, 6.572179998525788 ] } },
{ "type": "Feature", "properties": { "id": 12056, "name": "Bridge Clinic", "global_id": "b8190e96-e20d-4d46-915c-65152a125417", "alternate_": null, "functional": "Functional", "type": "Primary", "ward_code": "LASIKA06", "category": "Primary Health Center", "timestamp": "2019/11/15 17:20:30.000", "accessibil": null, "lga_name": "Ikeja", "lga_code": "25011", "state_code": "LA", "state_name": "Lagos" }, "geometry": { "type": "Point", "coordinates": [ 3.350980002536832, 6.570683331525319 ] } },
{ "type": "Feature", "properties": { "id": 12057, "name": "Benjo Dental and Orthodontic Practice", "global_id": "e0b04cfb-86f9-46ab-82e0-cdd756635174", "alternate_": null, "functional": "Functional", "type": "Primary", "ward_code": "LASIKA06", "category": "Primary Health Center", "timestamp": "2019/11/15 17:20:30.000", "accessibil": null, "lga_name": "Ikeja", "lga_code": "25011", "state_code": "LA", "state_name": "Lagos" }, "geometry": { "type": "Point", "coordinates": [ 3.352180002536526, 6.570014998525225 ] } },
{ "type": "Feature", "properties": { "id": 12058, "name": "Medical Art Center", "global_id": "d6d6f58a-455a-47e7-a25f-9ea8f7ca145c", "alternate_": null, "functional": "Functional", "type": "Primary", "ward_code": "LASIKA18", "category": "Primary Health Center", "timestamp": "2019/11/15 17:20:30.000", "accessibil": null, "lga_name": "Ikeja", "lga_code": "25011", "state_code": "LA", "state_name": "Lagos" }, "geometry": { "type": "Point", "coordinates": [ 3.362194202534938, 6.575137598527519 ] } },
{ "type": "Feature", "properties": { "id": 12065, "name": "Eye Foundation Hospital and Laser Center", "global_id": "a2a98a70-7972-4d7a-8687-1468c3945446", "alternate_": null, "functional": "Functional", "type": "Primary", "ward_code": "LASIKA06", "category": "Primary Health Center", "timestamp": "2019/11/15 17:20:30.000", "accessibil": null, "lga_name": "Ikeja", "lga_code": "25011", "state_code": "LA", "state_name": "Lagos" }, "geometry": { "type": "Point", "coordinates": [ 3.358629102536198, 6.580880898528889 ] } },
{ "type": "Feature", "properties": { "id": 12066, "name": "Petcare Animal Hospital", "global_id": "0ee64761-6380-4b3d-b012-a70f292cc9a1", "alternate_": null, "functional": "Functional", "type": "Primary", "ward_code": "LASIKA14", "category": "Primary Health Center", "timestamp": "2019/11/15 17:20:30.000", "accessibil": null, "lga_name": "Ikeja", "lga_code": "25011", "state_code": "LA", "state_name": "Lagos" }, "geometry": { "type": "Point", "coordinates": [ 3.364441702535445, 6.585678398530748 ] } },
{ "type": "Feature", "properties": { "id": 12067, "name": "Echo Scan", "global_id": "382d8db4-07cf-4505-8ebb-b33bc9c7c8bd", "alternate_": null, "functional": "Functional", "type": "Primary", "ward_code": "LASIKA18", "category": "Primary Health Center", "timestamp": "2019/11/15 17:20:30.000", "accessibil": null, "lga_name": "Ikeja", "lga_code": "25011", "state_code": "LA", "state_name": "Lagos" }, "geometry": { "type": "Point", "coordinates": [ 3.364615002535374, 6.585288298530651 ] } },
{ "type": "Feature", "properties": { "id": 12069, "name": "Grays Cardiac Center", "global_id": "0c98541e-4691-4ad6-9cd5-1a72b5a62950", "alternate_": null, "functional": "Functional", "type": "Primary", "ward_code": "LASIKA06", "category": "Primary Health Center", "timestamp": "2019/11/15 17:20:30.000", "accessibil": null, "lga_name": "Ikeja", "lga_code": "25011", "state_code": "LA", "state_name": "Lagos" }, "geometry": { "type": "Point", "coordinates": [ 3.346781669537855, 6.572404998525472 ] } },
{ "type": "Feature", "properties": { "id": 12079, "name": "Clinalancet Laboratories", "global_id": "d8260fd3-c710-47ec-8e7b-df3eaf38d57d", "alternate_": null, "functional": "Functional", "type": "Primary", "ward_code": "LASIKA16", "category": "Primary Health Center", "timestamp": "2019/11/15 17:20:30.000", "accessibil": null, "lga_name": "Ikeja", "lga_code": "25011", "state_code": "LA", "state_name": "Lagos" }, "geometry": { "type": "Point", "coordinates": [ 3.343316102540498, 6.593400298531258 ] } },
{ "type": "Feature", "properties": { "id": 12080, "name": "Sifomedics Clinical Laboratories", "global_id": "fd5aee8e-f924-4560-9ee8-9ebe2e04d600", "alternate_": null, "functional": "Functional", "type": "Primary", "ward_code": "LASIKA16", "category": "Primary Health Center", "timestamp": "2019/11/15 17:20:30.000", "accessibil": null, "lga_name": "Ikeja", "lga_code": "25011", "state_code": "LA", "state_name": "Lagos" }, "geometry": { "type": "Point", "coordinates": [ 3.343981602540407, 6.593891598531458 ] } },
{ "type": "Feature", "properties": { "id": 12081, "name": "Afriglobal Medicare", "global_id": "99bcecb7-b10b-4be4-b150-2d5c37cbfc95", "alternate_": null, "functional": "Functional", "type": "Primary", "ward_code": "LASIKA16", "category": "Primary Health Center", "timestamp": "2019/11/15 17:20:30.000", "accessibil": null, "lga_name": "Ikeja", "lga_code": "25011", "state_code": "LA", "state_name": "Lagos" }, "geometry": { "type": "Point", "coordinates": [ 3.345565002540045, 6.593511898531473 ] } },
{ "type": "Feature", "properties": { "id": 12092, "name": "Cathem Eye Hospital", "global_id": "3d9ede2e-27be-49c8-ad36-5fd46b0fea51", "alternate_": null, "functional": "Functional", "type": "Primary", "ward_code": "LASIKA07", "category": "Primary Health Center", "timestamp": "2019/11/15 17:20:30.000", "accessibil": null, "lga_name": "Ikeja", "lga_code": "25011", "state_code": "LA", "state_name": "Lagos" }, "geometry": { "type": "Point", "coordinates": [ 3.346106802541972, 6.615776298537974 ] } },
{ "type": "Feature", "properties": { "id": 12099, "name": "County Hospital", "global_id": "d9abf56b-2464-47f5-a9ba-254804cd99a4", "alternate_": null, "functional": "Functional", "type": "Primary", "ward_code": "LASIKA01", "category": "Primary Health Center", "timestamp": "2019/11/15 17:20:30.000", "accessibil": null, "lga_name": "Ikeja", "lga_code": "25011", "state_code": "LA", "state_name": "Lagos" }, "geometry": { "type": "Point", "coordinates": [ 3.34963420254305, 6.635584998544012 ] } },
{ "type": "Feature", "properties": { "id": 12100, "name": "Royash Dental Clinic", "global_id": "fe495a4c-2628-4359-998d-c61186b6f509", "alternate_": null, "functional": "Functional", "type": "Primary", "ward_code": "LASIKA01", "category": "Primary Health Center", "timestamp": "2019/11/15 17:20:30.000", "accessibil": null, "lga_name": "Ikeja", "lga_code": "25011", "state_code": "LA", "state_name": "Lagos" }, "geometry": { "type": "Point", "coordinates": [ 3.349187502543079, 6.634885798543774 ] } },
{ "type": "Feature", "properties": { "id": 12128, "name": "Gands Medical and Dental Hospital", "global_id": "dbe8e4bc-9563-4fb2-8cd6-b5f2f5fa4ef2", "alternate_": null, "functional": "Functional", "type": "Primary", "ward_code": "LASIKA09", "category": "Primary Health Center", "timestamp": "2019/11/15 17:15:50.000", "accessibil": null, "lga_name": "Ikeja", "lga_code": "25011", "state_code": "LA", "state_name": "Lagos" }, "geometry": { "type": "Point", "coordinates": [ 3.34464333554453, 6.640561665545057 ] } },
{ "type": "Feature", "properties": { "id": 12141, "name": "Adekunle Health Center", "global_id": "9a9a6c35-25d6-4efe-a401-e80132c4cde6", "alternate_": null, "functional": "Functional", "type": "Primary", "ward_code": "LASIKA07", "category": "Primary Health Center", "timestamp": "2019/11/15 17:15:50.000", "accessibil": null, "lga_name": "Ikeja", "lga_code": "25011", "state_code": "LA", "state_name": "Lagos" }, "geometry": { "type": "Point", "coordinates": [ 3.348620002541157, 6.612519998537232 ] } },
{ "type": "Feature", "properties": { "id": 12161, "name": "Mother and Child Hospital", "global_id": "35d2b5a8-eec1-44e5-9c4d-a1abe09057b5", "alternate_": null, "functional": "Functional", "type": "Primary", "ward_code": "LASIKA17", "category": "Primary Health Center", "timestamp": "2019/11/15 17:15:50.000", "accessibil": null, "lga_name": "Ikeja", "lga_code": "25011", "state_code": "LA", "state_name": "Lagos" }, "geometry": { "type": "Point", "coordinates": [ 3.343260002541929, 6.608906665535748 ] } },
{ "type": "Feature", "properties": { "id": 12198, "name": "Reddington Hospital", "global_id": "0f31946f-d4dd-4f84-9122-5be9e8577e50", "alternate_": null, "functional": "Functional", "type": "Primary", "ward_code": "LASIKA06", "category": "Primary Health Center", "timestamp": "2019/11/15 17:20:30.000", "accessibil": null, "lga_name": "Ikeja", "lga_code": "25011", "state_code": "LA", "state_name": "Lagos" }, "geometry": { "type": "Point", "coordinates": [ 3.357377902536712, 6.583661298529588 ] } },
{ "type": "Feature", "properties": { "id": 12236, "name": "Holy Trinity Hospital", "global_id": "ab57e454-64ae-4dbe-826b-889c017f4e51", "alternate_": null, "functional": "Functional", "type": "Primary", "ward_code": "LASIKA03", "category": "Primary Health Center", "timestamp": "2019/11/15 17:20:30.000", "accessibil": null, "lga_name": "Ikeja", "lga_code": "25011", "state_code": "LA", "state_name": "Lagos" }, "geometry": { "type": "Point", "coordinates": [ 3.343775102540967, 6.599561698533082 ] } },
{ "type": "Feature", "properties": { "id": 12841, "name": "Bola Ahmed Tinubu Primary Health Center", "global_id": "f7cfa02a-bb21-4202-9f09-5f8e3ef124a4", "alternate_": null, "functional": "Functional", "type": "Primary", "ward_code": "LASIKA03", "category": "Primary Health Center", "timestamp": "2019/11/15 17:21:52.000", "accessibil": null, "lga_name": "Ikeja", "lga_code": "25011", "state_code": "LA", "state_name": "Lagos" }, "geometry": { "type": "Point", "coordinates": [ 3.344795102540949, 6.601645198533772 ] } },
{ "type": "Feature", "properties": { "id": 12842, "name": "Okeira Central Primary Health Center", "global_id": "8c8c5c2c-ce7f-4e69-9eaf-36f13fb6cb20", "alternate_": null, "functional": "Functional", "type": "Primary", "ward_code": "LASIKA10", "category": "Primary Health Center", "timestamp": "2019/11/15 17:21:52.000", "accessibil": null, "lga_name": "Ikeja", "lga_code": "25011", "state_code": "LA", "state_name": "Lagos" }, "geometry": { "type": "Point", "coordinates": [ 3.352140602543678, 6.648164998547876 ] } },
{ "type": "Feature", "properties": { "id": 12843, "name": "Onilekere Primary Health Center", "global_id": "205d3e1a-4b40-47ce-b27b-89da992fd40a", "alternate_": null, "functional": "Functional", "type": "Primary", "ward_code": "LASIKA13", "category": "Primary Health Center", "timestamp": "2019/11/15 17:21:52.000", "accessibil": null, "lga_name": "Ikeja", "lga_code": "25011", "state_code": "LA", "state_name": "Lagos" }, "geometry": { "type": "Point", "coordinates": [ 3.317782302546816, 6.604980098532538 ] } },
{ "type": "Feature", "properties": { "id": 12980, "name": "Mega Vision Eye Clinic", "global_id": "9d1043b3-092f-4e17-b417-1f5a7d1741db", "alternate_": null, "functional": "Functional", "type": "Primary", "ward_code": "LASIKA14", "category": "Primary Health Center", "timestamp": "2019/11/15 17:20:30.000", "accessibil": null, "lga_name": "Ikeja", "lga_code": "25011", "state_code": "LA", "state_name": "Lagos" }, "geometry": { "type": "Point", "coordinates": [ 3.354050002538663, 6.597463331533311 ] } },
{ "type": "Feature", "properties": { "id": 18699, "name": "Apex Hospital", "global_id": "5f1f4f29-7304-4c2f-b812-dc69985787c3", "alternate_": null, "functional": "Functional", "type": "Primary", "ward_code": "LASIKA17", "category": "Primary Health Center", "timestamp": "2019/12/06 14:33:41.000", "accessibil": null, "lga_name": "Ikeja", "lga_code": "25011", "state_code": "LA", "state_name": "Lagos" }, "geometry": { "type": "Point", "coordinates": [ 3.341645002542157, 6.607749998535283 ] } },
{ "type": "Feature", "properties": { "id": 24157, "name": "The Duke Medical", "global_id": "47175660-0100-419b-a4df-7d8e4bcd6b6e", "alternate_": "Duro Soleye Hospital", "functional": "Unknown", "type": "Primary", "ward_code": "LASIKA14", "category": "Primary Health Center", "timestamp": "2019/11/15 17:20:30.000", "accessibil": null, "lga_name": "Ikeja", "lga_code": "25011", "state_code": "LA", "state_name": "Lagos" }, "geometry": { "type": "Point", "coordinates": [ 3.355102541538532, 6.598083494533647 ] } },
{ "type": "Feature", "properties": { "id": 24496, "name": "Fellowship Hospital Ltd", "global_id": "2906d1f9-f9a7-41a7-a677-c629a178dbf2", "alternate_": "Gina Maternity Home", "functional": "Functional", "type": "Primary", "ward_code": "LASIKA16", "category": "Primary Health Center", "timestamp": "2019/11/15 17:34:16.000", "accessibil": null, "lga_name": "Ikeja", "lga_code": "25011", "state_code": "LA", "state_name": "Lagos" }, "geometry": { "type": "Point", "coordinates": [ 3.345275881540292, 6.595092771531943 ] } },
{ "type": "Feature", "properties": { "id": 24497, "name": "Aguda Primary Health Center", "global_id": "7b231ac8-959c-4440-9d2c-0580602a0e98", "alternate_": null, "functional": "Functional", "type": "Primary", "ward_code": "LASIKA01", "category": "Primary Health Center", "timestamp": "2019/11/15 17:34:16.000", "accessibil": null, "lga_name": "Ikeja", "lga_code": "25011", "state_code": "LA", "state_name": "Lagos" }, "geometry": { "type": "Point", "coordinates": [ 3.348083498543506, 6.636291502544132 ] } },
{ "type": "Feature", "properties": { "id": 24505, "name": "Life Care Clinic", "global_id": "6d139d25-9d29-4fc0-938b-19c56e185b02", "alternate_": "St Leo Catholic Clinic", "functional": "Functional", "type": "Primary", "ward_code": "LASIKA16", "category": "Primary Health Center", "timestamp": "2019/11/15 17:31:48.000", "accessibil": null, "lga_name": "Ikeja", "lga_code": "25011", "state_code": "LA", "state_name": "Lagos" }, "geometry": { "type": "Point", "coordinates": [ 3.348693850539804, 6.597473143532913 ] } },
{ "type": "Feature", "properties": { "id": 24509, "name": "Royal Rapha Med Center", "global_id": "32e91d36-f351-4797-ab7d-995be20ff4b1", "alternate_": null, "functional": "Unknown", "type": "Primary", "ward_code": "LASIKA12", "category": "Primary Health Center", "timestamp": "2019/11/15 17:34:16.000", "accessibil": null, "lga_name": "Ikeja", "lga_code": "25011", "state_code": "LA", "state_name": "Lagos" }, "geometry": { "type": "Point", "coordinates": [ 3.365905764533612, 6.568298338525925 ] } },
{ "type": "Feature", "properties": { "id": 24510, "name": "Folarin Fountain Hospital", "global_id": "2ef555a6-ee0e-45a8-9722-c79dc734b928", "alternate_": null, "functional": "Functional", "type": "Primary", "ward_code": "LASIKA18", "category": "Primary Health Center", "timestamp": "2019/11/15 17:34:16.000", "accessibil": null, "lga_name": "Ikeja", "lga_code": "25011", "state_code": "LA", "state_name": "Lagos" }, "geometry": { "type": "Point", "coordinates": [ 3.368286134533885, 6.576904295528587 ] } },
{ "type": "Feature", "properties": { "id": 24511, "name": "Aburime Changsu Oriental Hospital Onigbongbo Ikeja", "global_id": "e2e4b275-07da-46aa-b982-faa53cf14b73", "alternate_": "Royal Ralpha Medical Center", "functional": "Unknown", "type": "Primary", "ward_code": "LASIKA12", "category": "Primary Health Center", "timestamp": "2019/11/15 17:34:16.000", "accessibil": null, "lga_name": "Ikeja", "lga_code": "25011", "state_code": "LA", "state_name": "Lagos" }, "geometry": { "type": "Point", "coordinates": [ 3.364501956533954, 6.569091795526025 ] } },
{ "type": "Feature", "properties": { "id": 24513, "name": "Sylvan Convalescent", "global_id": "ceff0865-baa6-4864-bd22-edd0c2a2d017", "alternate_": "Syvacom Clinic Maternity", "functional": "Unknown", "type": "Primary", "ward_code": "LASIKA04", "category": "Primary Health Center", "timestamp": "2019/11/15 17:34:16.000", "accessibil": null, "lga_name": "Ikeja", "lga_code": "25011", "state_code": "LA", "state_name": "Lagos" }, "geometry": { "type": "Point", "coordinates": [ 3.362121584537561, 6.60308837753564 ] } },
{ "type": "Feature", "properties": { "id": 28390, "name": "Tolu Clinic", "global_id": "fa9cc997-9448-49a0-8cec-881670851439", "alternate_": null, "functional": "Functional", "type": "Primary", "ward_code": "LASIKA10", "category": "Primary Health Center", "timestamp": "2019/11/15 17:34:16.000", "accessibil": null, "lga_name": "Ikeja", "lga_code": "25011", "state_code": "LA", "state_name": "Lagos" }, "geometry": { "type": "Point", "coordinates": [ 3.347840002544941, 6.651509998548534 ] } },
{ "type": "Feature", "properties": { "id": 28391, "name": "Bodet Medi Care", "global_id": "1f184fda-a6f1-4a60-931b-4cf48fb4c21f", "alternate_": null, "functional": "Functional", "type": "Primary", "ward_code": "LASIKA04", "category": "Primary Health Center", "timestamp": "2019/11/15 17:34:16.000", "accessibil": null, "lga_name": "Ikeja", "lga_code": "25011", "state_code": "LA", "state_name": "Lagos" }, "geometry": { "type": "Point", "coordinates": [ 3.355750002539439, 6.609139998536854 ] } },
{ "type": "Feature", "properties": { "id": 28667, "name": "Adefemi Hospital", "global_id": "98f4ecf4-cae5-49f8-91be-678a0051ad5d", "alternate_": null, "functional": "Functional", "type": "Primary", "ward_code": "LASIKA17", "category": "Primary Health Center", "timestamp": "2019/11/15 17:34:16.000", "accessibil": null, "lga_name": "Ikeja", "lga_code": "25011", "state_code": "LA", "state_name": "Lagos" }, "geometry": { "type": "Point", "coordinates": [ 3.339020002542246, 6.602169998533507 ] } },
{ "type": "Feature", "properties": { "id": 28668, "name": "Mt Sinai Hospital Ikeja", "global_id": "3eccd9bc-2f7d-4098-a162-e6409932394d", "alternate_": null, "functional": "Functional", "type": "Primary", "ward_code": "LASIKA17", "category": "Primary Health Center", "timestamp": "2019/11/15 17:34:16.000", "accessibil": null, "lga_name": "Ikeja", "lga_code": "25011", "state_code": "LA", "state_name": "Lagos" }, "geometry": { "type": "Point", "coordinates": [ 3.339990002542158, 6.603419998533917 ] } },
{ "type": "Feature", "properties": { "id": 28669, "name": "Dominion Medical Consultant", "global_id": "18159a5c-bd82-4df5-a87c-922334369143", "alternate_": null, "functional": "Functional", "type": "Primary", "ward_code": "LASIKA17", "category": "Primary Health Center", "timestamp": "2019/11/15 17:34:16.000", "accessibil": null, "lga_name": "Ikeja", "lga_code": "25011", "state_code": "LA", "state_name": "Lagos" }, "geometry": { "type": "Point", "coordinates": [ 3.340890002542117, 6.604989998534462 ] } },
{ "type": "Feature", "properties": { "id": 28670, "name": "Bolasad Hospital", "global_id": "a6d1267d-9897-416e-a73f-1f23af151783", "alternate_": null, "functional": "Functional", "type": "Primary", "ward_code": "LASIKA17", "category": "Primary Health Center", "timestamp": "2019/11/15 17:34:16.000", "accessibil": null, "lga_name": "Ikeja", "lga_code": "25011", "state_code": "LA", "state_name": "Lagos" }, "geometry": { "type": "Point", "coordinates": [ 3.344010002541354, 6.604019998534439 ] } },
{ "type": "Feature", "properties": { "id": 28671, "name": "Medical Acces Ltd", "global_id": "db1149d2-d6b8-41c2-9145-7e8e8c3d8c8f", "alternate_": null, "functional": "Functional", "type": "Primary", "ward_code": "LASIKA06", "category": "Primary Health Center", "timestamp": "2019/11/15 17:34:16.000", "accessibil": null, "lga_name": "Ikeja", "lga_code": "25011", "state_code": "LA", "state_name": "Lagos" }, "geometry": { "type": "Point", "coordinates": [ 3.357540002535794, 6.573729998526803 ] } },
{ "type": "Feature", "properties": { "id": 28672, "name": "Silkin Hospital", "global_id": "0d8664a2-93cb-4a6d-86b9-732f5f498c6d", "alternate_": null, "functional": "Functional", "type": "Primary", "ward_code": "LASIKA10", "category": "Primary Health Center", "timestamp": "2019/11/15 17:34:16.000", "accessibil": null, "lga_name": "Ikeja", "lga_code": "25011", "state_code": "LA", "state_name": "Lagos" }, "geometry": { "type": "Point", "coordinates": [ 3.34664000254499, 6.649739998547954 ] } },
{ "type": "Feature", "properties": { "id": 28673, "name": "Critical Resue International Med", "global_id": "f39c233f-d126-4a3a-a3b0-c74bd672309b", "alternate_": null, "functional": "Functional", "type": "Primary", "ward_code": "LASIKA17", "category": "Primary Health Center", "timestamp": "2019/11/15 17:34:16.000", "accessibil": null, "lga_name": "Ikeja", "lga_code": "25011", "state_code": "LA", "state_name": "Lagos" }, "geometry": { "type": "Point", "coordinates": [ 3.336330002543397, 6.60899999853525 ] } },
{ "type": "Feature", "properties": { "id": 28674, "name": "Magnus Medical Clinic", "global_id": "424f288a-b572-4237-915d-3ddef8ef1978", "alternate_": null, "functional": "Functional", "type": "Primary", "ward_code": "LASIKA08", "category": "Primary Health Center", "timestamp": "2019/11/15 17:34:16.000", "accessibil": null, "lga_name": "Ikeja", "lga_code": "25011", "state_code": "LA", "state_name": "Lagos" }, "geometry": { "type": "Point", "coordinates": [ 3.366850002540217, 6.642749998547517 ] } },
{ "type": "Feature", "properties": { "id": 28675, "name": "Allison Memorial Clinic", "global_id": "bff67e3e-2497-42d8-bb37-84c212e8b48b", "alternate_": null, "functional": "Functional", "type": "Primary", "ward_code": "LASIKA08", "category": "Primary Health Center", "timestamp": "2019/11/15 17:34:16.000", "accessibil": null, "lga_name": "Ikeja", "lga_code": "25011", "state_code": "LA", "state_name": "Lagos" }, "geometry": { "type": "Point", "coordinates": [ 3.357970002542629, 6.649589998548804 ] } },
{ "type": "Feature", "properties": { "id": 28760, "name": "Maxivision Eye Hospital", "global_id": "c48d8e49-2996-49f2-a336-df5458868b02", "alternate_": null, "functional": "Functional", "type": "Primary", "ward_code": "LASIKA14", "category": "Primary Health Center", "timestamp": "2019/11/15 17:34:16.000", "accessibil": null, "lga_name": "Ikeja", "lga_code": "25011", "state_code": "LA", "state_name": "Lagos" }, "geometry": { "type": "Point", "coordinates": [ 3.357015126142076, 6.588466544521672 ] } },
{ "type": "Feature", "properties": { "id": 28808, "name": "The Eko Hospital", "global_id": "1477450e-c490-4ee2-88d9-f88a5563ddbf", "alternate_": null, "functional": "Functional", "type": "Primary", "ward_code": "LASIKA14", "category": "Primary Health Center", "timestamp": "2019/11/15 17:34:16.000", "accessibil": null, "lga_name": "Ikeja", "lga_code": "25011", "state_code": "LA", "state_name": "Lagos" }, "geometry": { "type": "Point", "coordinates": [ 3.357453975511505, 6.587780490904396 ] } },
{ "type": "Feature", "properties": { "id": 28910, "name": "Rccg Life Center Hospital", "global_id": "d34b8933-7c5c-45e6-a59e-f8108b3a8e58", "alternate_": null, "functional": "Functional", "type": "Primary", "ward_code": "LASIKA16", "category": "Primary Health Center", "timestamp": "2019/11/15 17:31:48.000", "accessibil": null, "lga_name": "Ikeja", "lga_code": "25011", "state_code": "LA", "state_name": "Lagos" }, "geometry": { "type": "Point", "coordinates": [ 3.349850002539659, 6.598249998533258 ] } },
{ "type": "Feature", "properties": { "id": 28911, "name": "Ikeja Central Hospital", "global_id": "3f5c5d29-1216-44d1-a727-94eeced1523f", "alternate_": null, "functional": "Functional", "type": "Primary", "ward_code": "LASIKA17", "category": "Primary Health Center", "timestamp": "2019/11/15 17:34:16.000", "accessibil": null, "lga_name": "Ikeja", "lga_code": "25011", "state_code": "LA", "state_name": "Lagos" }, "geometry": { "type": "Point", "coordinates": [ 3.342450002541261, 6.59930999853296 ] } },
{ "type": "Feature", "properties": { "id": 28912, "name": "Healing Balm Hospital", "global_id": "67bef695-aa65-4fd3-8515-a0930def2b2b", "alternate_": null, "functional": "Functional", "type": "Primary", "ward_code": "LASIKA17", "category": "Primary Health Center", "timestamp": "2019/11/15 17:34:16.000", "accessibil": null, "lga_name": "Ikeja", "lga_code": "25011", "state_code": "LA", "state_name": "Lagos" }, "geometry": { "type": "Point", "coordinates": [ 3.342940002541151, 6.599079998532944 ] } },
{ "type": "Feature", "properties": { "id": 28914, "name": "Gate Medical Services", "global_id": "453094c8-9102-4936-b237-efee4c9ddc8f", "alternate_": null, "functional": "Functional", "type": "Primary", "ward_code": "LASIKA02", "category": "Primary Health Center", "timestamp": "2019/11/15 17:34:16.000", "accessibil": null, "lga_name": "Ikeja", "lga_code": "25011", "state_code": "LA", "state_name": "Lagos" }, "geometry": { "type": "Point", "coordinates": [ 3.358940002541529, 6.639079998545812 ] } },
{ "type": "Feature", "properties": { "id": 28915, "name": "House of Care", "global_id": "9597e343-03a4-40d7-ad39-56b884b2623e", "alternate_": null, "functional": "Functional", "type": "Primary", "ward_code": "LASIKA04", "category": "Primary Health Center", "timestamp": "2019/11/15 17:31:48.000", "accessibil": null, "lga_name": "Ikeja", "lga_code": "25011", "state_code": "LA", "state_name": "Lagos" }, "geometry": { "type": "Point", "coordinates": [ 3.354230002539154, 6.602909998534967 ] } },
{ "type": "Feature", "properties": { "id": 28920, "name": "Ebenezer Thomas Hospital", "global_id": "2bb92367-1789-40e6-96d0-298ef0d423b8", "alternate_": null, "functional": "Functional", "type": "Primary", "ward_code": "LASIKA07", "category": "Primary Health Center", "timestamp": "2019/11/15 17:34:16.000", "accessibil": null, "lga_name": "Ikeja", "lga_code": "25011", "state_code": "LA", "state_name": "Lagos" }, "geometry": { "type": "Point", "coordinates": [ 3.348320002541367, 6.613499998537535 ] } },
{ "type": "Feature", "properties": { "id": 29004, "name": "Canon Medical Clinic", "global_id": "c3528f84-a9c4-4ace-ba79-f09fa7ec252f", "alternate_": null, "functional": "Functional", "type": "Primary", "ward_code": "LASIKA08", "category": "Primary Health Center", "timestamp": "2019/11/15 17:34:16.000", "accessibil": null, "lga_name": "Ikeja", "lga_code": "25011", "state_code": "LA", "state_name": "Lagos" }, "geometry": { "type": "Point", "coordinates": [ 3.363650002541387, 6.648329998548889 ] } },
{ "type": "Feature", "properties": { "id": 31511, "name": "Gbadamosi Health Center", "global_id": "7acb4b42-b137-4bc9-81f0-71d8512898e5", "alternate_": null, "functional": "Functional", "type": "Primary", "ward_code": "LASIKA08", "category": "Primary Health Center", "timestamp": "2019/11/15 17:34:16.000", "accessibil": null, "lga_name": "Ikeja", "lga_code": "25011", "state_code": "LA", "state_name": "Lagos" }, "geometry": { "type": "Point", "coordinates": [ 3.358994501626118, 6.649674651280517 ] } },
{ "type": "Feature", "properties": { "id": 33077, "name": "Cadbury Nigeria Limited Clinic", "global_id": "0f8c6ed3-599a-4d35-89b8-6718820b0d7c", "alternate_": null, "functional": "Functional", "type": "Primary", "ward_code": "LASIKA07", "category": "Primary Health Center", "timestamp": "2019/11/15 17:34:16.000", "accessibil": null, "lga_name": "Ikeja", "lga_code": "25011", "state_code": "LA", "state_name": "Lagos" }, "geometry": { "type": "Point", "coordinates": [ 3.352420002541437, 6.623579998540809 ] } },
{ "type": "Feature", "properties": { "id": 33087, "name": "Alausa Primary Health Center", "global_id": "0a65ac91-e79e-49d2-8967-22dcdd7bea3d", "alternate_": null, "functional": "Functional", "type": "Primary", "ward_code": "LASIKA04", "category": "Primary Health Center", "timestamp": "2019/11/15 17:34:16.000", "accessibil": null, "lga_name": "Ikeja", "lga_code": "25011", "state_code": "LA", "state_name": "Lagos" }, "geometry": { "type": "Point", "coordinates": [ 3.356750002539352, 6.610699998537426 ] } },
{ "type": "Feature", "properties": { "id": 33088, "name": "Oke Yra Powerline Primary Health Center", "global_id": "396cc749-194d-41c2-b0e4-46f39d5e8795", "alternate_": null, "functional": "Functional", "type": "Primary", "ward_code": "LASIKA10", "category": "Primary Health Center", "timestamp": "2019/11/15 17:34:16.000", "accessibil": null, "lga_name": "Ikeja", "lga_code": "25011", "state_code": "LA", "state_name": "Lagos" }, "geometry": { "type": "Point", "coordinates": [ 3.348280002545008, 6.653589998549212 ] } },
{ "type": "Feature", "properties": { "id": 33187, "name": "Yakoyo Primary Health Clinic", "global_id": "00b63b24-5c32-48ec-b12e-631ffd946256", "alternate_": null, "functional": "Functional", "type": "Primary", "ward_code": "LASIKA08", "category": "Primary Health Center", "timestamp": "2019/11/15 17:31:48.000", "accessibil": null, "lga_name": "Ikeja", "lga_code": "25011", "state_code": "LA", "state_name": "Lagos" }, "geometry": { "type": "Point", "coordinates": [ 3.356060002543263, 6.651729998549271 ] } },
{ "type": "Feature", "properties": { "id": 34171, "name": "Unity Hospital Ikleja", "global_id": "7d96c39f-2fcf-4d4e-abae-0a52583efdcc", "alternate_": null, "functional": "Functional", "type": "Primary", "ward_code": "LASIKA17", "category": "Primary Health Center", "timestamp": "2019/11/15 17:20:30.000", "accessibil": null, "lga_name": "Ikeja", "lga_code": "25011", "state_code": "LA", "state_name": "Lagos" }, "geometry": { "type": "Point", "coordinates": [ 3.346395138615091, 6.604822559247252 ] } }
]
}
